OBJECT_NAME,OBJECT_ID,EPOCH,MEAN_MOTION,ECCENTRICITY,INCLINATION,RA_OF_ASC_NODE,ARG_OF_PERICENTER,MEAN_ANOMALY,EPHEMERIS_TYPE,CLASSIFICATION_TYPE,NORAD_CAT_ID,ELEMENT_SET_NO,REV_AT_EPOCH,BSTAR,MEAN_MOTION_DOT,MEAN_MOTION_DDOT
STARS (KUKAI),2009-002G,2026-05-19T02:47:52.969056,14.95524731,.0006854,98.1536,85.2469,265.4573,94.5864,0,U,33498,999,93413,.22644E-3,.2447E-4,0
KKS-1 (KISEKI),2009-002H,2026-05-19T02:38:58.668000,14.83039024,.0008691,98.1194,61.0933,33.6214,326.5549,0,U,33499,999,93188,.10236E-3,.777E-5,0
UK-DMC 2,2009-041C,2026-05-19T05:03:49.867776,14.75976968,.0001632,97.8798,274.8933,79.0183,281.1211,0,U,35683,999,90229,.93989E-4,.597E-5,0
OCEANSAT-2,2009-051A,2026-05-19T05:56:44.583072,13.99650770,.0014851,98.2301,128.9898,323.4869,36.5284,0,U,35931,999,87528,.19679E-3,.25E-5,0
SWISSCUBE,2009-051B,2026-05-18T22:53:29.685120,14.62418523,.0005794,98.4055,46.3316,313.4304,46.6414,0,U,35932,999,88488,.13468E-3,.632E-5,0
BEESAT-1,2009-051C,2026-05-18T11:15:17.187552,14.61666380,.00046428,98.3984,45.5356,334.4729,25.6242,0,U,35933,999,88484,.11220632E-3,.509E-5,0
ITUPSAT1,2009-051E,2026-05-19T04:30:03.017088,14.60391532,.0006997,98.4068,45.4878,339.3599,20.7317,0,U,35935,999,88450,.10393E-3,.454E-5,0
DMSP 5D-3 F18 (USA 210),2009-057A,2026-05-19T05:14:02.352192,14.14879060,.0010674,98.9028,120.0529,339.6506,20.4240,0,U,35951,999,85549,.11727E-3,.182E-5,0
PROBA-2,2009-059B,2026-05-19T01:54:30.895200,14.54848702,.0013574,98.2448,322.8366,16.4266,343.7368,0,U,36037,999,87729,.31811E-4,.91E-6,0
YAOGAN-7,2009-069A,2026-05-19T04:20:17.028960,14.77977147,.0025634,98.0106,25.2222,130.6271,229.7175,0,U,36110,999,88534,.44804E-4,.272E-5,0
XIWANG-1 (HOPE-1),2009-072B,2026-05-19T05:05:35.670624,13.16439852,.0006983,100.4016,93.5101,304.0145,56.0304,0,U,36122,999,78919,.70966E-3,.227E-5,0
COSMOS 2463,2010-017A,2026-05-19T02:35:09.397824,13.71663551,.0035554,82.9593,271.0718,208.7855,324.6078,0,U,36519,999,80394,.23146E-4,.36E-6,0
CARTOSAT-2B,2010-035A,2026-05-19T04:09:58.429152,14.78621574,.0010024,97.9969,189.9050,286.9884,73.0228,0,U,36795,999,85556,.95823E-4,.649E-5,0
TISAT 1,2010-035E,2026-05-19T02:23:55.775904,15.30497332,.0002968,98.0707,83.1000,41.9557,318.1909,0,U,36799,999,86325,.44659E-3,.13093E-3,0
YAOGAN-10,2010-038A,2026-05-19T05:59:03.079680,14.85252803,.0001643,97.8990,162.8841,92.8929,333.6051,0,U,36834,999,85291,.17094E-3,.1413E-4,0
SHIJIAN-6 04B (SJ-6 04B),2010-051B,2026-05-19T04:35:31.235136,14.99258165,.0011803,97.8703,144.3079,45.9257,314.2935,0,U,37180,999,85133,-.91396E-5,-.173E-5,0
FENGYUN 3B,2010-059A,2026-05-19T04:09:17.044416,14.14833965,.002093,98.9636,185.0610,269.0952,179.9739,0,U,37214,999,80332,-.96494E-4,-.232E-5,0
COSMO-SKYMED 4,2010-060A,2026-05-19T05:04:50.689056,14.82158892,.000142,97.8879,323.2313,85.2214,274.9161,0,U,37216,999,84027,.87941E-4,.648E-5,0
O/OREOS (USA 219),2010-062C,2026-05-19T03:07:09.171264,14.93607354,.0012748,71.9680,146.1513,126.7738,233.4605,0,U,37224,999,11230,.11987E-3,.1204E-4,0
RESOURCESAT-2,2011-015A,2026-05-19T03:52:55.358976,14.21605398,.0010837,98.7652,206.8019,347.1241,12.9657,0,U,37387,999,78205,.42712E-4,.49E-6,0
YOUTHSAT,2011-015B,2026-05-19T03:50:36.395808,14.25616695,.0015706,98.3671,114.5265,68.9411,301.6406,0,U,37388,999,78350,.61994E-4,.106E-5,0
APRIZESAT 6,2011-044F,2026-05-19T00:07:05.743776,14.76870805,.0043109,98.2381,48.9071,177.5229,195.0231,0,U,37793,999,79284,.59841E-4,.37E-5,0
JUGNU,2011-058B,2026-05-19T03:37:59.136960,14.13767405,.0018771,19.9594,124.8247,115.6487,328.0214,0,U,37839,999,75491,.51619E-4,.366E-5,0
SRMSAT,2011-058D,2026-05-18T23:21:56.263968,14.11568779,.0011589,19.9714,236.2978,242.8396,273.1563,0,U,37841,999,75368,.52637E-4,.362E-5,0
SUOMI NPP,2011-061A,2026-05-19T03:49:18.854400,14.19510621,.0002746,98.7945,80.2358,63.4884,296.6573,0,U,37849,999,75432,.42831E-4,.46E-6,0
YAOGAN-12,2011-066B,2026-05-19T03:48:45.629280,15.26193912,.0008845,97.1159,179.0966,339.4591,20.6292,0,U,37875,999,80761,.13643E-3,.3463E-4,0
