STARS (KUKAI)           
1 33498U 09002G   26139.11658529  .00002447  00000+0  22644-3 0  9993
2 33498  98.1536  85.2469 0006854 265.4573  94.5864 14.95524731934137
KKS-1 (KISEKI)          
1 33499U 09002H   26139.11040125  .00000777  00000+0  10236-3 0  9999
2 33499  98.1194  61.0933 0008691  33.6214 326.5549 14.83039024931884
UK-DMC 2                
1 35683U 09041C   26139.21099384  .00000597  00000+0  93989-4 0  9998
2 35683  97.8798 274.8933 0001632  79.0183 281.1211 14.75976968902291
OCEANSAT-2              
1 35931U 09051A   26139.24773823  .00000250  00000+0  19679-3 0  9994
2 35931  98.2301 128.9898 0014851 323.4869  36.5284 13.99650770875280
SWISSCUBE               
1 35932U 09051B   26138.95381580  .00000632  00000+0  13468-3 0  9991
2 35932  98.4055  46.3316 0005794 313.4304  46.6414 14.62418523884888
BEESAT-1                
1 35933U 09051C   26138.46894893  .00000509  00000+0  11221-3 0  9992
2 35933  98.3984  45.5356 0004642 334.4729  25.6242 14.61666380884846
ITUPSAT1                
1 35935U 09051E   26139.18753492  .00000454  00000+0  10393-3 0  9991
2 35935  98.4068  45.4878 0006997 339.3599  20.7317 14.60391532884509
DMSP 5D-3 F18 (USA 210) 
1 35951U 09057A   26139.21808278  .00000182  00000+0  11727-3 0  9992
2 35951  98.9028 120.0529 0010674 339.6506  20.4240 14.14879060855493
PROBA-2                 
1 36037U 09059B   26139.07952425  .00000091  00000+0  31811-4 0  9994
2 36037  98.2448 322.8366 0013574  16.4266 343.7368 14.54848702877291
YAOGAN-7                
1 36110U 09069A   26139.18075265  .00000272  00000+0  44804-4 0  9994
2 36110  98.0106  25.2222 0025634 130.6271 229.7175 14.77977147885347
XIWANG-1 (HOPE-1)       
1 36122U 09072B   26139.21221841  .00000227  00000+0  70966-3 0  9995
2 36122 100.4016  93.5101 0006983 304.0145  56.0304 13.16439852789194
COSMOS 2463             
1 36519U 10017A   26139.10774766  .00000036  00000+0  23146-4 0  9990
2 36519  82.9593 271.0718 0035554 208.7855 324.6078 13.71663551803947
CARTOSAT-2B             
1 36795U 10035A   26139.17359293  .00000649  00000+0  95823-4 0  9998
2 36795  97.9969 189.9050 0010024 286.9884  73.0228 14.78621574855561
TISAT 1                 
1 36799U 10035E   26139.09995111  .00013093  00000+0  44659-3 0  9995
2 36799  98.0707  83.1000 0002968  41.9557 318.1909 15.30497332863257
YAOGAN-10               
1 36834U 10038A   26139.24934120  .00001413  00000+0  17094-3 0  9994
2 36834  97.8990 162.8841 0001643  92.8929 333.6051 14.85252803852915
SHIJIAN-6 04B (SJ-6 04B)
1 37180U 10051B   26139.19133374 -.00000173  00000+0 -91396-5 0  9993
2 37180  97.8703 144.3079 0011803  45.9257 314.2935 14.99258165851335
FENGYUN 3B              
1 37214U 10059A   26139.17311394 -.00000232  00000+0 -96494-4 0  9996
2 37214  98.9636 185.0610 0020930 269.0952 179.9739 14.14833965803323
COSMO-SKYMED 4          
1 37216U 10060A   26139.21169779  .00000648  00000+0  87941-4 0  9999
2 37216  97.8879 323.2313 0001420  85.2214 274.9161 14.82158892840274
O/OREOS (USA 219)       
1 37224U 10062C   26139.12996726  .00001204  00000+0  11987-3 0  9995
2 37224  71.9680 146.1513 0012748 126.7738 233.4605 14.93607354112300
RESOURCESAT-2           
1 37387U 11015A   26139.16175184  .00000049  00000+0  42712-4 0  9992
2 37387  98.7652 206.8019 0010837 347.1241  12.9657 14.21605398782055
YOUTHSAT                
1 37388U 11015B   26139.16014347  .00000106  00000+0  61994-4 0  9993
2 37388  98.3671 114.5265 0015706  68.9411 301.6406 14.25616695783505
APRIZESAT 6             
1 37793U 11044F   26139.00492759  .00000370  00000+0  59841-4 0  9996
2 37793  98.2381  48.9071 0043109 177.5229 195.0231 14.76870805792848
JUGNU                   
1 37839U 11058B   26139.15137890  .00000366  00000+0  51619-4 0  9990
2 37839  19.9594 124.8247 0018771 115.6487 328.0214 14.13767405754917
SRMSAT                  
1 37841U 11058D   26138.97356787  .00000362  00000+0  52637-4 0  9997
2 37841  19.9714 236.2978 0011589 242.8396 273.1563 14.11568779753686
SUOMI NPP               
1 37849U 11061A   26139.15924600  .00000046  00000+0  42831-4 0  9999
2 37849  98.7945  80.2358 0002746  63.4884 296.6573 14.19510621754322
YAOGAN-12               
1 37875U 11066B   26139.15886145  .00003463  00000+0  13643-3 0  9998
2 37875  97.1159 179.0966 0008845 339.4591  20.6292 15.26193912807613
